GLOBALSTAR M075         
1 37192U 10054E   25214.56047994 -.00000097  00000+0  35274-4 0  9991
2 37192  51.9957  40.3403 0000818  81.5431 316.2946 12.62266424681701
GLOBALSTAR M073         
1 37193U 10054F   25214.56758323 -.00000097  00000+0  39409-4 0  9991
2 37193  52.0082 314.1746 0000745 102.8048 327.8904 12.62261468683690
GLOBALSTAR M083         
1 37739U 11033A   25214.51877476 -.00000090  00000+0  74995-4 0  9993
2 37739  51.9846 262.9943 0000293 104.6493  41.9671 12.62275088653069
GLOBALSTAR M088         
1 37740U 11033B   25214.86159472 -.00000087  00000+0  92749-4 0  9995
2 37740  52.0201 167.6009 0000241  21.5675   4.8540 12.62267098648580
GLOBALSTAR M091         
1 37741U 11033C   25214.27268208 -.00000096  00000+0  42457-4 0  9990
2 37741  51.9993 132.8286 0000593  20.5167 149.3700 12.62269569649009
GLOBALSTAR M085         
1 37742U 11033D   25214.70646370 -.00000109  00000+0 -30723-4 0  9998
2 37742  52.0127  82.5219 0000776  46.0650 356.3757 12.62263940650068
GLOBALSTAR M081         
1 37743U 11033E   25214.65138887 -.00000104  00000+0 -99295-6 0  9998
2 37743  51.9959  85.4906 0000912  56.5172 333.9688 12.62267294649712
GLOBALSTAR M089         
1 37744U 11033F   25214.52956809 -.00000098  00000+0  34183-4 0  9991
2 37744  51.9940  40.0785 0001006  95.3019 282.4335 12.62265617650548
